STARLINK-1402_new
1 15685C 20035AE  21326.16319119  .00008148  00000-0  54579-3 0  3261
2 15685  53.0546 258.0197 0001866  66.2052 261.5639 15.06398251    10
STARLINK-1402_old
1 25685C 20035AE  21325.12291502  .00006473  00000-0  43375-3 0  3251
2 25685  53.0545 262.6893 0001802  64.8862  18.3173 15.06386138    18
